[{"OBJECT_NAME":"STARLINK-1094","OBJECT_ID":"2020-001AD","EPOCH":"2026-03-09T22:40:26.113152","MEAN_MOTION":15.30181946,"ECCENTRICITY":0.00013179,"INCLINATION":53.1603,"RA_OF_ASC_NODE":318.3807,"ARG_OF_PERICENTER":76.5708,"MEAN_ANOMALY":283.5439,"EPHEMERIS_TYPE":0,"CLASSIFICATION_TYPE":"U","NORAD_CAT_ID":44941,"ELEMENT_SET_NO":999,"REV_AT_EPOCH":34027,"BSTAR":-8.227902e-5,"MEAN_MOTION_DOT":-2.794e-5,"MEAN_MOTION_DDOT":0},{"OBJECT_NAME":"CZ-4B R\/B","OBJECT_ID":"2008-053C","EPOCH":"2026-03-09T16:52:55.405920","MEAN_MOTION":15.20774751,"ECCENTRICITY":0.00860777,"INCLINATION":97.7895,"RA_OF_ASC_NODE":133.277,"ARG_OF_PERICENTER":241.1085,"MEAN_ANOMALY":118.1494,"EPHEMERIS_TYPE":0,"CLASSIFICATION_TYPE":"U","NORAD_CAT_ID":33410,"ELEMENT_SET_NO":999,"REV_AT_EPOCH":94950,"BSTAR":0.00029822835,"MEAN_MOTION_DOT":7.181e-5,"MEAN_MOTION_DDOT":0}]
